NORAD_CAT_ID,OBJECT_NAME,OBJECT_TYPE,EPOCH,MEAN_MOTION,ECCENTRICITY,INCLINATION,RA_OF_ASC_NODE,ARG_OF_PERICENTER,MEAN_ANOMALY,BSTAR,MEAN_MOTION_DOT,MEAN_MOTION_DDOT,TLE_LINE0,TLE_LINE1,TLE_LINE2,SEMIMAJOR_AXIS,PERIOD,APOGEE,PERIGEE,DECAYED
50830.0,STARLINK-3278,PAYLOAD,2022-05-04 22:00:01,15.07218333,0.000217,53.219,5.3586,47.9419,69.977,-0.00068937,-0.00010766,0.0,0 STARLINK-3278,1 50830U 22001AD  22124.91668981 -.00010766  00000-0 -68937-3 0  9998,2 50830  53.2190   5.3586 0002170  47.9419  69.9770 15.07218333  3609,6922.842,95.54,546.2090000000002,543.2040000000002,0.0
50830.0,STARLINK-3278,PAYLOAD,2022-05-05 06:00:00,15.07232327,0.0002171,53.2186,3.8658,46.0923,81.4023,-0.00068683,-0.00010731,0.0,0 STARLINK-3278,1 50830U 22001AD  22125.25001157 -.00010731  00000-0 -68683-3 0  9992,2 50830  53.2186   3.8658 0002171  46.0923  81.4023 15.07232327 19514,6922.799,95.539,546.1669999999998,543.161,0.0
50830.0,STARLINK-3278,PAYLOAD,2022-05-05 14:00:01,15.07198233,0.0001956,53.2185,2.3723,48.6696,88.4941,0.0031674,0.00048252,0.0,0 STARLINK-3278,1 50830U 22001AD  22125.58334491  .00048252  00000-0  31674-2 0  9994,2 50830  53.2185   2.3723 0001956  48.6696  88.4941 15.07198233  3566,6922.903,95.542,546.122,543.414,0.0
50830.0,STARLINK-3278,PAYLOAD,2022-05-05 22:00:00,15.071995800000002,0.000197,53.2183,0.8832,46.7288,100.0825,0.0028262,0.00042993,0.0,0 STARLINK-3278,1 50830U 22001AD  22125.91667824  .00042993  00000-0  28262-2 0  9995,2 50830  53.2183   0.8832 0001970  46.7288 100.0825 15.07199580  3568,6922.899,95.541,546.128,543.4,0.0
50830.0,STARLINK-3278,PAYLOAD,2022-05-06 08:00:01,15.07258008,0.0001917,53.2176,359.0187,42.6812,206.183,0.04845,0.00790977,0.0,0 STARLINK-3278,1 50830U 22001AD  22126.33334491  .00790977  00000-0  48450-1 0  9995,2 50830  53.2176 359.0187 0001917  42.6812 206.1830 15.07258008 19686,6922.72,95.538,545.9119999999998,543.258,0.0
50830.0,STARLINK-3278,PAYLOAD,2022-05-06 14:00:01,15.07629897,0.0001738,53.2175,357.8987,46.0955,120.2061,0.049081,0.00810806,0.0,0 STARLINK-3278,1 50830U 22001AD  22126.58334491  .00810806  00000-0  49081-1 0  9997,2 50830  53.2175 357.8987 0001738  46.0955 120.2061 15.07629897  3612,6921.581999999999,95.514,544.65,542.244,0.0
50830.0,STARLINK-3278,PAYLOAD,2022-05-06 22:00:00,15.08141932,0.0002211,53.2174,356.4064,33.1256,143.5104,0.04809,0.00805095,0.0,0 STARLINK-3278,1 50830U 22001AD  22126.91667824  .00805095  00000-0  48090-1 0  9996,2 50830  53.2174 356.4064 0002211  33.1256 143.5104 15.08141932 19769,6920.015,95.482,543.41,540.35,0.0
50830.0,STARLINK-3278,PAYLOAD,2022-05-07 06:00:02,15.08783907,0.0001641,53.2173,354.9104,54.1218,133.6202,0.0053275,0.00085397,0.0,0 STARLINK-3278,1 50830U 22001AD  22127.25002315  .00085397  00000-0  53275-2 0  9999,2 50830  53.2173 354.9104 0001641  54.1218 133.6202 15.08783907 19812,6918.052,95.441,541.052,538.7819999999998,0.0
50830.0,STARLINK-3278,PAYLOAD,2022-05-07 14:00:01,15.08838471,0.0001786,53.2173,353.413,45.5895,153.6558,-0.0001712,-3.012e-05,0.0,0 STARLINK-3278,1 50830U 22001AD  22127.58334491 -.00003012  00000-0 -17120-3 0  9994,2 50830  53.2173 353.4130 0001786  45.5895 153.6558 15.08838471  3603,6917.885,95.438,540.986,538.515,0.0
50830.0,STARLINK-3278,PAYLOAD,2022-05-07 22:00:00,15.08847203,0.0001849,53.2181,351.9134,40.2716,170.7355,-0.00031727,-5.335e-05,0.0,0 STARLINK-3278,1 50830U 22001AD  22127.91667824 -.00005335  00000-0 -31727-3 0  9999,2 50830  53.2181 351.9134 0001849  40.2716 170.7355 15.08847203  3599,6917.858,95.437,541.002,538.444,0.0
50830.0,STARLINK-3278,PAYLOAD,2022-05-08 06:00:00,15.08862501,0.0001763,53.218,350.4163,37.0805,185.5256,-0.0041189999999999,-0.00065289,0.0,0 STARLINK-3278,1 50830U 22001AD  22128.25001157 -.00065289  00000-0 -41190-2 0  9996,2 50830  53.2180 350.4163 0001763  37.0805 185.5256 15.08862501 19962,6917.812,95.436,540.896,538.457,0.0
50830.0,STARLINK-3278,PAYLOAD,2022-05-08 14:00:01,15.08818034,0.0001644,53.2183,348.9189,42.1192,192.0806,0.0021339,0.00033816,0.0,0 STARLINK-3278,1 50830U 22001AD  22128.58334491  .00033816  00000-0  21339-2 0  9994,2 50830  53.2183 348.9189 0001644  42.1192 192.0806 15.08818034  3597,6917.948,95.439,540.95,538.675,0.0
50830.0,STARLINK-3278,PAYLOAD,2022-05-08 20:00:01,15.08841536,0.0001821,53.2183,347.7981,39.1805,113.7034,-0.0010253,-0.0001657,0.0,0 STARLINK-3278,1 50830U 22001AD  22128.83334491 -.00016570  00000-0 -10253-2 0  9995,2 50830  53.2183 347.7981 0001821  39.1805 113.7034 15.08841536 20054,6917.876,95.437,541.0,538.481,0.0
50830.0,STARLINK-3278,PAYLOAD,2022-05-08 22:00:00,15.08831168,0.0001894,53.2184,347.4244,38.4049,207.3794,0.00031611,4.745e-05,0.0,0 STARLINK-3278,1 50830U 22001AD  22128.91667824  .00004745  00000-0  31611-3 0  9994,2 50830  53.2184 347.4244 0001894  38.4049 207.3794 15.08831168  3599,6917.906999999997,95.438,541.0830000000002,538.462,0.0
50830.0,STARLINK-3278,PAYLOAD,2022-05-09 14:00:01,15.08820397,0.0001819,53.2187,344.4299,45.8037,223.2229,0.002076,0.00032889,0.0,0 STARLINK-3278,1 50830U 22001AD  22129.58335648  .00032889  00000-0  20760-2 0  9996,2 50830  53.2187 344.4299 0001819  45.8037 223.2229 15.08820397 20170,6917.94,95.439,541.064,538.547,0.0
50830.0,STARLINK-3278,PAYLOAD,2022-05-09 22:00:00,15.08829557,0.0002043,53.2188,342.9355,41.1714,239.3792,0.00091928,0.00014368,0.0,0 STARLINK-3278,1 50830U 22001AD  22129.91667824  .00014368  00000-0  91928-3 0  9994,2 50830  53.2188 342.9355 0002043  41.1714 239.3792 15.08829557  3595,6917.9119999999975,95.438,541.191,538.364,0.0
50830.0,STARLINK-3278,PAYLOAD,2022-05-10 08:00:01,15.0883566,0.000185,53.2189,341.0639,41.5093,343.535,-0.001352,-0.00021738,0.0,0 STARLINK-3278,1 50830U 22001AD  22130.33334491 -.00021738  00000-0 -13520-2 0  9995,2 50830  53.2189 341.0639 0001850  41.5093 343.5350 15.08835660 20285,6917.894,95.438,541.038,538.479,0.0
50830.0,STARLINK-3278,PAYLOAD,2022-05-10 14:00:01,15.08821744,0.0001799,53.2191,339.9412,44.4169,259.311,0.0017419,0.00027529,0.0,0 STARLINK-3278,1 50830U 22001AD  22130.58334491  .00027529  00000-0  17419-2 0  9995,2 50830  53.2191 339.9412 0001799  44.4169 259.3110 15.08821744  3592,6917.936,95.439,541.0459999999998,538.557,0.0
50830.0,STARLINK-3278,PAYLOAD,2022-05-10 18:00:00,15.088437699999998,0.0001904,53.2191,339.1941,42.0431,87.4707,-0.0014086,-0.00022639,0.0,0 STARLINK-3278,1 50830U 22001AD  22130.75001157 -.00022639  00000-0 -14086-2 0  9990,2 50830  53.2191 339.1941 0001904  42.0431  87.4707 15.08843770 20342,6917.869000000002,95.437,541.0509999999998,538.4169999999998,0.0
50830.0,STARLINK-3278,PAYLOAD,2022-05-11 22:00:00,15.08817738,0.0002114,53.219,333.9581,43.6188,306.4501,0.0013549,0.00021328,0.0,0 STARLINK-3278,1 50830U 22001AD  22131.91667824  .00021328  00000-0  13549-2 0  9993,2 50830  53.2190 333.9581 0002114  43.6188 306.4501 15.08817738 20524,6917.948,95.439,541.276,538.351,0.0
50830.0,STARLINK-3278,PAYLOAD,2022-05-12 14:00:01,15.08849542,0.0001903,53.2188,330.9639,49.5409,323.6992,0.00089865,0.00014047,0.0,0 STARLINK-3278,1 50830U 22001AD  22132.58334491  .00014047  00000-0  89865-3 0  9993,2 50830  53.2188 330.9639 0001903  49.5409 323.6992 15.08849542  1306,6917.851,95.437,541.033,538.4,0.0
50830.0,STARLINK-3278,PAYLOAD,2022-05-12 22:00:00,15.08848244,0.0002069,53.2185,329.4693,44.2821,340.5744,0.0010198,0.00015983,0.0,0 STARLINK-3278,1 50830U 22001AD  22132.91667824  .00015983  00000-0  10198-2 0  9991,2 50830  53.2185 329.4693 0002069  44.2821 340.5744 15.08848244  1301,6917.855,95.437,541.151,538.289,0.0
50830.0,STARLINK-3278,PAYLOAD,2022-05-13 06:00:00,15.08860848,0.0001908,53.218,327.9715,45.6335,350.8388,-0.0023499,-0.00037514,0.0,0 STARLINK-3278,1 50830U 22001AD  22133.25001157 -.00037514  00000-0 -23499-2 0  9994,2 50830  53.2180 327.9715 0001908  45.6335 350.8388 15.08860848 20729,6917.816999999999,95.436,541.002,538.362,0.0
50830.0,STARLINK-3278,PAYLOAD,2022-05-13 14:00:01,15.08855845,0.0001878,53.2181,326.4749,49.7851,358.283,-0.002378,-0.00037952,0.0,0 STARLINK-3278,1 50830U 22001AD  22133.58334491 -.00037952  00000-0 -23780-2 0  9999,2 50830  53.2181 326.4749 0001878  49.7851 358.2830 15.08855845  1303,6917.831999999999,95.437,540.996,538.398,0.0
50830.0,STARLINK-3278,PAYLOAD,2022-05-13 22:00:00,15.08807416,0.000209,53.2178,324.9802,46.2112,13.4579,0.0021696,0.0003438,0.0,0 STARLINK-3278,1 50830U 22001AD  22133.91667824  .00034380  00000-0  21696-2 0  9999,2 50830  53.2178 324.9802 0002090  46.2112  13.4579 15.08807416 20820,6917.98,95.44,541.2909999999998,538.399,0.0
50830.0,STARLINK-3278,PAYLOAD,2022-05-14 14:00:01,15.08837679,0.0002155,53.2176,321.9891,45.6897,37.1033,-6.859e-05,-1.3800000000000008e-05,0.0,0 STARLINK-3278,1 50830U 22001AD  22134.58334491 -.00001380  00000-0 -68590-4 0  9996,2 50830  53.2176 321.9891 0002155  45.6897  37.1033 15.08837679 20921,6917.887,95.438,541.243,538.262,0.0
50830.0,STARLINK-3278,PAYLOAD,2022-05-14 22:00:00,15.08811912,0.0002014,53.2173,320.491,43.0615,51.3773,0.003142,0.00050034,0.0,0 STARLINK-3278,1 50830U 22001AD  22134.91667824  .00050034  00000-0  31420-2 0  9990,2 50830  53.2173 320.4910 0002014  43.0615  51.3773 15.08811912  1300,6917.965999999999,95.439,541.225,538.438,0.0
50830.0,STARLINK-3278,PAYLOAD,2022-05-15 14:00:01,15.08838707,0.0001853,53.2172,317.4962,46.5975,71.0711,-8.9584e-05,-1.714e-05,0.0,0 STARLINK-3278,1 50830U 22001AD  22135.58335648 -.00001714  00000-0 -89584-4 0  9999,2 50830  53.2172 317.4962 0001853  46.5975  71.0711 15.08838707 21077,6917.884,95.438,541.031,538.467,0.0
50830.0,STARLINK-3278,PAYLOAD,2022-05-15 22:00:00,15.08825409,0.0002008,53.2172,316.0014,39.9366,89.2727,0.0026721,0.00042478,0.0,0 STARLINK-3278,1 50830U 22001AD  22135.91667824  .00042478  00000-0  26721-2 0  9992,2 50830  53.2172 316.0014 0002008  39.9366  89.2727 15.08825409  1300,6917.925,95.438,541.179,538.401,0.0
